start=new Date('2023-04-16T00:00:00.000Z').valueOf();
sats=[{"COUNTRY_CODE":"US","ARG_OF_PERICENTER":"266.9880","PERIOD":"96.107","OBJECT_ID":"2021-082AR","LAUNCH_DATE":"2021-09-14","ECCENTRICITY":"0.00028310","CENTER_NAME":"EARTH","RCS_SIZE":"LARGE","DECAY_DATE":null,"NORAD_CAT_ID":"49169","TLE_LINE2":"2 49169  70.0013  64.0810 0002831 266.9880  93.0955 14.98327217 87879","MEAN_MOTION":"14.98327217","REV_AT_EPOCH":"8787","TLE_LINE1":"1 49169U 21082AR  23105.88808614 -.00000127  00000-0 -28222-5 0  9999","APOAPSIS":"574.034","EPHEMERIS_TYPE":"0","INCLINATION":"70.0013","PERIAPSIS":"570.099","ELEMENT_SET_NO":"999","REF_FRAME":"TEME","MEAN_ELEMENT_THEORY":"SGP4","SITE":"AFWTR","MEAN_MOTION_DOT":"-0.00000127","MEAN_MOTION_DDOT":"0.0000000000000","BSTAR":"-0.00000282220000","RA_OF_ASC_NODE":"64.0810","OBJECT_TYPE":"PAYLOAD","FILE":"3888171","TIME_SYSTEM":"UTC","CLASSIFICATION_TYPE":"U","GP_ID":"230130226","EPOCH":"2023-04-15T21:18:50.642496","MEAN_ANOMALY":"93.0955","SEMIMAJOR_AXIS":"6950.201","OBJECT_NAME":"STARLINK-3046"},{"GP_ID":"230098709","CLASSIFICATION_TYPE":"U","TIME_SYSTEM":"UTC","OBJECT_TYPE":"PAYLOAD","FILE":"3887974","SEMIMAJOR_AXIS":"6950.173","MEAN_ANOMALY":"92.0902","OBJECT_NAME":"STARLINK-3074","EPOCH":"2023-04-15T08:36:05.988960","PERIAPSIS":"569.952","ELEMENT_SET_NO":"999","REF_FRAME":"TEME","BSTAR":"0.00007239100000","MEAN_MOTION_DDOT":"0.0000000000000","MEAN_MOTION_DOT":"0.00000771","RA_OF_ASC_NODE":"85.4059","MEAN_ELEMENT_THEORY":"SGP4","SITE":"AFWTR","MEAN_MOTION":"14.98336399","TLE_LINE2":"2 49170  69.9992  85.4059 0003002 267.9913  92.0902 14.98336399 87305","REV_AT_EPOCH":"8730","INCLINATION":"69.9992","TLE_LINE1":"1 49170U 21082AS  23105.35840265  .00000771  00000-0  72391-4 0  9999","APOAPSIS":"574.125","EPHEMERIS_TYPE":"0","COUNTRY_CODE":"US","OBJECT_ID":"2021-082AS","PERIOD":"96.107","ARG_OF_PERICENTER":"267.9913","DECAY_DATE":null,"NORAD_CAT_ID":"49170","CENTER_NAME":"EARTH","LAUNCH_DATE":"2021-09-14","ECCENTRICITY":"0.00030020","RCS_SIZE":"LARGE"},{"INCLINATION":"70.0005","TLE_LINE1":"1 49171U 21082AT  23105.90933880  .00000080  00000-0  14457-4 0  9999","APOAPSIS":"574.113","EPHEMERIS_TYPE":"0","REV_AT_EPOCH":"8854","MEAN_MOTION":"14.98332056","TLE_LINE2":"2 49171  70.0005  84.0054 0002966 269.0718  91.0102 14.98332056 88542","NORAD_CAT_ID":"49171","DECAY_DATE":null,"RCS_SIZE":"LARGE","CENTER_NAME":"EARTH","LAUNCH_DATE":"2021-09-14","ECCENTRICITY":"0.00029660","OBJECT_ID":"2021-082AT","PERIOD":"96.107","ARG_OF_PERICENTER":"269.0718","COUNTRY_CODE":"US","OBJECT_NAME":"STARLINK-3107","MEAN_ANOMALY":"91.0102","SEMIMAJOR_AXIS":"6950.187","EPOCH":"2023-04-15T21:49:26.872320","GP_ID":"230128726","CLASSIFICATION_TYPE":"U","TIME_SYSTEM":"UTC","FILE":"3888171","OBJECT_TYPE":"PAYLOAD","RA_OF_ASC_NODE":"84.0054","BSTAR":"0.00001445700000","MEAN_MOTION_DDOT":"0.0000000000000","MEAN_MOTION_DOT":"0.00000080","SITE":"AFWTR","MEAN_ELEMENT_THEORY":"SGP4","REF_FRAME":"TEME","ELEMENT_SET_NO":"999","PERIAPSIS":"569.990"},{"MEAN_MOTION":"14.98329120","TLE_LINE2":"2 49172  70.0012  63.9816 0002821 266.4166  93.6671 14.98329120 87873","REV_AT_EPOCH":"8787","INCLINATION":"70.0012","TLE_LINE1":"1 49172U 21082AU  23105.92146340 -.00000294  00000-0 -16866-4 0  9994","APOAPSIS":"574.021","EPHEMERIS_TYPE":"0","COUNTRY_CODE":"US","OBJECT_ID":"2021-082AU","PERIOD":"96.107","ARG_OF_PERICENTER":"266.4166","NORAD_CAT_ID":"49172","DECAY_DATE":null,"LAUNCH_DATE":"2021-09-14","ECCENTRICITY":"0.00028210","CENTER_NAME":"EARTH","RCS_SIZE":"LARGE","GP_ID":"230129475","CLASSIFICATION_TYPE":"U","TIME_SYSTEM":"UTC","FILE":"3888171","OBJECT_TYPE":"PAYLOAD","MEAN_ANOMALY":"93.6671","SEMIMAJOR_AXIS":"6950.196","OBJECT_NAME":"STARLINK-3091","EPOCH":"2023-04-15T22:06:54.437760","PERIAPSIS":"570.100","ELEMENT_SET_NO":"999","REF_FRAME":"TEME","BSTAR":"-0.00001686600000","MEAN_MOTION_DDOT":"0.0000000000000","MEAN_MOTION_DOT":"-0.00000294","RA_OF_ASC_NODE":"63.9816","MEAN_ELEMENT_THEORY":"SGP4","SITE":"AFWTR"},{"EPOCH":"2023-04-15T21:00:48.803904","MEAN_ANOMALY":"95.2494","SEMIMAJOR_AXIS":"6950.188","OBJECT_NAME":"STARLINK-3045","TIME_SYSTEM":"UTC","OBJECT_TYPE":"PAYLOAD","FILE":"3888171","GP_ID":"230129727","CLASSIFICATION_TYPE":"U","MEAN_ELEMENT_THEORY":"SGP4","SITE":"AFWTR","BSTAR":"0.00001764600000","MEAN_MOTION_DDOT":"0.0000000000000","MEAN_MOTION_DOT":"0.00000118","RA_OF_ASC_NODE":"64.0965","PERIAPSIS":"570.257","ELEMENT_SET_NO":"999","REF_FRAME":"TEME","REV_AT_EPOCH":"8787","INCLINATION":"70.0006","EPHEMERIS_TYPE":"0","TLE_LINE1":"1 49173U 21082AV  23105.87556486  .00000118  00000-0  17646-4 0  9995","APOAPSIS":"573.849","TLE_LINE2":"2 49173  70.0006  64.0965 0002584 264.8370  95.2494 14.98331475 87876","MEAN_MOTION":"14.98331475","LAUNCH_DATE":"2021-09-14","ECCENTRICITY":"0.00025840","CENTER_NAME":"EARTH","RCS_SIZE":"LARGE","DECAY_DATE":null,"NORAD_CAT_ID":"49173","COUNTRY_CODE":"US","OBJECT_ID":"2021-082AV","PERIOD":"96.107","ARG_OF_PERICENTER":"264.8370"},{"RCS_SIZE":"LARGE","CENTER_NAME":"EARTH","LAUNCH_DATE":"2021-09-14","ECCENTRICITY":"0.00044890","DECAY_DATE":null,"NORAD_CAT_ID":"49174","ARG_OF_PERICENTER":"261.1382","OBJECT_ID":"2021-082AW","PERIOD":"96.159","COUNTRY_CODE":"US","TLE_LINE1":"1 49174U 21082AW  23105.90937154  .00000391  00000-0  41341-4 0  9997","APOAPSIS":"577.676","EPHEMERIS_TYPE":"0","INCLINATION":"69.9998","REV_AT_EPOCH":"8905","TLE_LINE2":"2 49174  69.9998  63.7868 0004489 261.1382  98.9269 14.97522779 89051","MEAN_MOTION":"14.97522779","SITE":"AFWTR","MEAN_ELEMENT_THEORY":"SGP4","RA_OF_ASC_NODE":"63.7868","MEAN_MOTION_DOT":"0.00000391","MEAN_MOTION_DDOT":"0.0000000000000","BSTAR":"0.00004134100000","ELEMENT_SET_NO":"999","REF_FRAME":"TEME","PERIAPSIS":"571.434","EPOCH":"2023-04-15T21:49:29.701056","OBJECT_NAME":"STARLINK-3047","MEAN_ANOMALY":"98.9269","SEMIMAJOR_AXIS":"6952.690","FILE":"3888171","OBJECT_TYPE":"PAYLOAD","TIME_SYSTEM":"UTC","CLASSIFICATION_TYPE":"U","GP_ID":"230129974"},{"BSTAR":"-0.00012235000000","MEAN_MOTION_DDOT":"0.0000000000000","MEAN_MOTION_DOT":"-0.00001553","RA_OF_ASC_NODE":"64.0366","MEAN_ELEMENT_THEORY":"SGP4","SITE":"AFWTR","PERIAPSIS":"569.816","ELEMENT_SET_NO":"999","REF_FRAME":"TEME","MEAN_ANOMALY":"97.0903","SEMIMAJOR_AXIS":"6950.183","OBJECT_NAME":"STARLINK-3087","EPOCH":"2023-04-15T21:42:52.075296","GP_ID":"230129226","CLASSIFICATION_TYPE":"U","TIME_SYSTEM":"UTC","FILE":"3888171","OBJECT_TYPE":"PAYLOAD","DECAY_DATE":null,"NORAD_CAT_ID":"49175","CENTER_NAME":"EARTH","LAUNCH_DATE":"2021-09-14","ECCENTRICITY":"0.00032120","RCS_SIZE":"LARGE","COUNTRY_CODE":"US","OBJECT_ID":"2021-082AX","PERIOD":"96.107","ARG_OF_PERICENTER":"262.9890","REV_AT_EPOCH":"8787","INCLINATION":"69.9998","TLE_LINE1":"1 49175U 21082AX  23105.90476939 -.00001553  00000-0 -12235-3 0  9999","EPHEMERIS_TYPE":"0","APOAPSIS":"574.281","MEAN_MOTION":"14.98333077","TLE_LINE2":"2 49175  69.9998  64.0366 0003212 262.9890  97.0903 14.98333077 87870"},{"DECAY_DATE":null,"NORAD_CAT_ID":"49176","CENTER_NAME":"EARTH","LAUNCH_DATE":"2021-09-14","ECCENTRICITY":"0.00030890","RCS_SIZE":"LARGE","COUNTRY_CODE":"US","PERIOD":"96.108","OBJECT_ID":"2021-082AY","ARG_OF_PERICENTER":"268.4200","REV_AT_EPOCH":"8836","INCLINATION":"70.0008","TLE_LINE1":"1 49176U 21082AY  23105.89202583  .00002757  00000-0  23886-3 0  9999","EPHEMERIS_TYPE":"0","APOAPSIS":"574.272","MEAN_MOTION":"14.98308275","TLE_LINE2":"2 49176  70.0008  44.0577 0003089 268.4200  91.6605 14.98308275 88362","BSTAR":"0.00023886000000","MEAN_MOTION_DDOT":"0.0000000000000","MEAN_MOTION_DOT":"0.00002757","RA_OF_ASC_NODE":"44.0577","MEAN_ELEMENT_THEORY":"SGP4","SITE":"AFWTR","PERIAPSIS":"569.978","ELEMENT_SET_NO":"999","REF_FRAME":"TEME","MEAN_ANOMALY":"91.6605","SEMIMAJOR_AXIS":"6950.260","OBJECT_NAME":"STARLINK-3069","EPOCH":"2023-04-15T21:24:31.031712","GP_ID":"230128976","CLASSIFICATION_TYPE":"U","TIME_SYSTEM":"UTC","OBJECT_TYPE":"PAYLOAD","FILE":"3888171"},{"REV_AT_EPOCH":"8956","INCLINATION":"70.0024","TLE_LINE1":"1 49177U 21082AZ  23105.91289047  .00003693  00000-0  31723-3 0  9992","EPHEMERIS_TYPE":"0","APOAPSIS":"574.194","TLE_LINE2":"2 49177  70.0024  44.0174 0003003 267.0685  93.0130 14.98314098 89564","MEAN_MOTION":"14.98314098","LAUNCH_DATE":"2021-09-14","CENTER_NAME":"EARTH","ECCENTRICITY":"0.00030030","RCS_SIZE":"LARGE","DECAY_DATE":null,"NORAD_CAT_ID":"49177","COUNTRY_CODE":"US","PERIOD":"96.108","OBJECT_ID":"2021-082AZ","ARG_OF_PERICENTER":"267.0685","EPOCH":"2023-04-15T21:54:33.736608","SEMIMAJOR_AXIS":"6950.242","MEAN_ANOMALY":"93.0130","OBJECT_NAME":"STARLINK-3103","TIME_SYSTEM":"UTC","OBJECT_TYPE":"PAYLOAD","FILE":"3888171","GP_ID":"230130227","CLASSIFICATION_TYPE":"U","MEAN_ELEMENT_THEORY":"SGP4","SITE":"AFWTR","BSTAR":"0.00031723000000","MEAN_MOTION_DOT":"0.00003693","MEAN_MOTION_DDOT":"0.0000000000000","RA_OF_ASC_NODE":"44.0174","PERIAPSIS":"570.020","ELEMENT_SET_NO":"999","REF_FRAME":"TEME"},{"CLASSIFICATION_TYPE":"U","GP_ID":"230098710","OBJECT_TYPE":"PAYLOAD","FILE":"3887974","TIME_SYSTEM":"UTC","MEAN_ANOMALY":"89.8590","SEMIMAJOR_AXIS":"6950.180","OBJECT_NAME":"STARLINK-3086","EPOCH":"2023-04-15T08:06:03.558816","PERIAPSIS":"569.919","ELEMENT_SET_NO":"999","REF_FRAME":"TEME","MEAN_MOTION_DDOT":"0.0000000000000","MEAN_MOTION_DOT":"0.00000817","BSTAR":"0.00007626400000","RA_OF_ASC_NODE":"85.4475","MEAN_ELEMENT_THEORY":"SGP4","SITE":"AFWTR","MEAN_MOTION":"14.98334264","TLE_LINE2":"2 49178  69.9989  85.4475 0003058 270.2218  89.8590 14.98334264 88450","REV_AT_EPOCH":"8845","EPHEMERIS_TYPE":"0","TLE_LINE1":"1 49178U 21082BA  23105.33754119  .00000817  00000-0  76264-4 0  9991","APOAPSIS":"574.170","INCLINATION":"69.9989","COUNTRY_CODE":"US","ARG_OF_PERICENTER":"270.2218","PERIOD":"96.107","OBJECT_ID":"2021-082BA","DECAY_DATE":null,"NORAD_CAT_ID":"49178","LAUNCH_DATE":"2021-09-14","ECCENTRICITY":"0.00030580","CENTER_NAME":"EARTH","RCS_SIZE":"LARGE"}];
